{
  "type": "FeatureCollection",
  "features": [
    {
      "type": "Feature",
      "properties": {
        "norad_id": 67053,
        "name": "STARLINK-35739",
        "group": "last-30-days",
        "lat": -11.252211838256448,
        "lon": -61.567865683008606,
        "alt_km": 356.5842386477116,
        "timestamp": "2025-12-25T03:55:54.956589+00:00",
        "meta_object_name": "STARLINK-35739",
        "meta_object_id": "2025-294Z",
        "meta_epoch": "2025-12-24T20:00:01.000224",
        "meta_mean_motion": 15.72611754,
        "meta_eccentricity": 0.0001337,
        "meta_inclination": 43.0002,
        "meta_ra_of_asc_node": 108.1005,
        "meta_arg_of_pericenter": 290.1082,
        "meta_mean_anomaly": 193.9996,
        "meta_ephemeris_type": 0,
        "meta_classification_type": "U",
        "meta_norad_cat_id": 67053,
        "meta_element_set_no": 999,
        "meta_rev_at_epoch": 189,
        "meta_bstar": -0.01573,
        "meta_mean_motion_dot": -0.01891015,
        "meta_mean_motion_ddot": 0,
        "tle_line1": "1 67053U 25294Z   25358.83334491 -.01891015  00000+0 -15730-1 0  9994",
        "tle_line2": "2 67053  43.0002 108.1005 0001337 290.1082 193.9996 15.72611754  1896"
      },
      "geometry": {
        "type": "Point",
        "coordinates": [
          -61.567865683008606,
          -11.252211838256448
        ]
      }
    },
    {
      "type": "Feature",
      "properties": {
        "norad_id": 67054,
        "name": "STARLINK-35754",
        "group": "last-30-days",
        "lat": -12.75517888374994,
        "lon": -59.841965758686364,
        "alt_km": 356.8185270891936,
        "timestamp": "2025-12-25T03:55:54.956601+00:00",
        "meta_object_name": "STARLINK-35754",
        "meta_object_id": "2025-294AA",
        "meta_epoch": "2025-12-24T20:00:01.000224",
        "meta_mean_motion": 15.72595058,
        "meta_eccentricity": 0.0001509,
        "meta_inclination": 43.0001,
        "meta_ra_of_asc_node": 108.0946,
        "meta_arg_of_pericenter": 292.4662,
        "meta_mean_anomaly": 193.9308,
        "meta_ephemeris_type": 0,
        "meta_classification_type": "U",
        "meta_norad_cat_id": 67054,
        "meta_element_set_no": 999,
        "meta_rev_at_epoch": 205,
        "meta_bstar": -0.015778,
        "meta_mean_motion_dot": -0.01933615,
        "meta_mean_motion_ddot": 0,
        "tle_line1": "1 67054U 25294AA  25358.83334491 -.01933615  00000+0 -15778-1 0  9990",
        "tle_line2": "2 67054  43.0001 108.0946 0001509 292.4662 193.9308 15.72595058  2053"
      },
      "geometry": {
        "type": "Point",
        "coordinates": [
          -59.841965758686364,
          -12.75517888374994
        ]
      }
    },
    {
      "type": "Feature",
      "properties": {
        "norad_id": 67055,
        "name": "STARLINK-35790",
        "group": "last-30-days",
        "lat": -14.207882498740922,
        "lon": -58.141802924046495,
        "alt_km": 356.9148218927048,
        "timestamp": "2025-12-25T03:55:54.956614+00:00",
        "meta_object_name": "STARLINK-35790",
        "meta_object_id": "2025-294AB",
        "meta_epoch": "2025-12-24T20:00:01.000224",
        "meta_mean_motion": 15.72565798,
        "meta_eccentricity": 0.0001463,
        "meta_inclination": 42.9999,
        "meta_ra_of_asc_node": 108.0884,
        "meta_arg_of_pericenter": 290.6688,
        "meta_mean_anomaly": 197.9596,
        "meta_ephemeris_type": 0,
        "meta_classification_type": "U",
        "meta_norad_cat_id": 67055,
        "meta_element_set_no": 999,
        "meta_rev_at_epoch": 224,
        "meta_bstar": -0.015619,
        "meta_mean_motion_dot": -0.01876334,
        "meta_mean_motion_ddot": 0,
        "tle_line1": "1 67055U 25294AB  25358.83334491 -.01876334  00000+0 -15619-1 0  9999",
        "tle_line2": "2 67055  42.9999 108.0884 0001463 290.6688 197.9596 15.72565798  2248"
      },
      "geometry": {
        "type": "Point",
        "coordinates": [
          -58.141802924046495,
          -14.207882498740922
        ]
      }
    },
    {
      "type": "Feature",
      "properties": {
        "norad_id": 67056,
        "name": "STARLINK-36143",
        "group": "last-30-days",
        "lat": -18.123886659218268,
        "lon": -53.35838385674468,
        "alt_km": 357.2366769182345,
        "timestamp": "2025-12-25T03:55:54.956625+00:00",
        "meta_object_name": "STARLINK-36143",
        "meta_object_id": "2025-294AC",
        "meta_epoch": "2025-12-24T20:00:01.000224",
        "meta_mean_motion": 15.72555211,
        "meta_eccentricity": 0.0001413,
        "meta_inclination": 42.9998,
        "meta_ra_of_asc_node": 108.0734,
        "meta_arg_of_pericenter": 291.4254,
        "meta_mean_anomaly": 203.2709,
        "meta_ephemeris_type": 0,
        "meta_classification_type": "U",
        "meta_norad_cat_id": 67056,
        "meta_element_set_no": 999,
        "meta_rev_at_epoch": 224,
        "meta_bstar": -0.015736,
        "meta_mean_motion_dot": -0.01887705,
        "meta_mean_motion_ddot": 0,
        "tle_line1": "1 67056U 25294AC  25358.83334491 -.01887705  00000+0 -15736-1 0  9994",
        "tle_line2": "2 67056  42.9998 108.0734 0001413 291.4254 203.2709 15.72555211  2241"
      },
      "geometry": {
        "type": "Point",
        "coordinates": [
          -53.35838385674468,
          -18.123886659218268
        ]
      }
    },
    {
      "type": "Feature",
      "properties": {
        "norad_id": 67057,
        "name": "STARLINK-36141",
        "group": "last-30-days",
        "lat": -16.797805922232584,
        "lon": -55.01476086098904,
        "alt_km": 357.1666137373095,
        "timestamp": "2025-12-25T03:55:54.956636+00:00",
        "meta_object_name": "STARLINK-36141",
        "meta_object_id": "2025-294AD",
        "meta_epoch": "2025-12-24T20:00:01.000224",
        "meta_mean_motion": 15.72562256,
        "meta_eccentricity": 0.0001445,
        "meta_inclination": 42.9997,
        "meta_ra_of_asc_node": 108.0786,
        "meta_arg_of_pericenter": 292.836,
        "meta_mean_anomaly": 199.784,
        "meta_ephemeris_type": 0,
        "meta_classification_type": "U",
        "meta_norad_cat_id": 67057,
        "meta_element_set_no": 999,
        "meta_rev_at_epoch": 216,
        "meta_bstar": -0.015722,
        "meta_mean_motion_dot": -0.0188679,
        "meta_mean_motion_ddot": 0,
        "tle_line1": "1 67057U 25294AD  25358.83334491 -.01886790  00000+0 -15722-1 0  9993",
        "tle_line2": "2 67057  42.9997 108.0786 0001445 292.8360 199.7840 15.72562256  2169"
      },
      "geometry": {
        "type": "Point",
        "coordinates": [
          -55.01476086098904,
          -16.797805922232584
        ]
      }
    },
    {
      "type": "Feature",
      "properties": {
        "norad_id": 67058,
        "name": "STARLINK-35767",
        "group": "last-30-days",
        "lat": -15.528239165329508,
        "lon": -56.56394333710762,
        "alt_km": 357.00242499363685,
        "timestamp": "2025-12-25T03:55:54.956646+00:00",
        "meta_object_name": "STARLINK-35767",
        "meta_object_id": "2025-294AE",
        "meta_epoch": "2025-12-24T20:00:01.000224",
        "meta_mean_motion": 15.72561909,
        "meta_eccentricity": 0.0001357,
        "meta_inclination": 43.0001,
        "meta_ra_of_asc_node": 108.0838,
        "meta_arg_of_pericenter": 289.81,
        "meta_mean_anomaly": 200.8452,
        "meta_ephemeris_type": 0,
        "meta_classification_type": "U",
        "meta_norad_cat_id": 67058,
        "meta_element_set_no": 999,
        "meta_rev_at_epoch": 205,
        "meta_bstar": -0.015657,
        "meta_mean_motion_dot": -0.01879952,
        "meta_mean_motion_ddot": 0,
        "tle_line1": "1 67058U 25294AE  25358.83334491 -.01879952  00000+0 -15657-1 0  9993",
        "tle_line2": "2 67058  43.0001 108.0838 0001357 289.8100 200.8452 15.72561909  2051"
      },
      "geometry": {
        "type": "Point",
        "coordinates": [
          -56.56394333710762,
          -15.528239165329508
        ]
      }
    },
    {
      "type": "Feature",
      "properties": {
        "norad_id": 67059,
        "name": "HULIANWANG DIGUI-119",
        "group": "last-30-days",
        "lat": -46.71606980177805,
        "lon": -157.12570180191724,
        "alt_km": 806.2284584882182,
        "timestamp": "2025-12-25T03:55:54.956657+00:00",
        "meta_object_name": "HULIANWANG DIGUI-119",
        "meta_object_id": "2025-295A",
        "meta_epoch": "2025-12-24T20:01:09.456672",
        "meta_mean_motion": 14.24616505,
        "meta_eccentricity": 0.0014022,
        "meta_inclination": 50.005,
        "meta_ra_of_asc_node": 321.2219,
        "meta_arg_of_pericenter": 289.0699,
        "meta_mean_anomaly": 70.8695,
        "meta_ephemeris_type": 0,
        "meta_classification_type": "U",
        "meta_norad_cat_id": 67059,
        "meta_element_set_no": 999,
        "meta_rev_at_epoch": 184,
        "meta_bstar": 7.1733e-05,
        "meta_mean_motion_dot": 8e-08,
        "meta_mean_motion_ddot": 0,
        "tle_line1": "1 67059U 25295A   25358.83413723  .00000008  00000+0  71733-4 0  9996",
        "tle_line2": "2 67059  50.0050 321.2219 0014022 289.0699  70.8695 14.24616505  1843"
      },
      "geometry": {
        "type": "Point",
        "coordinates": [
          -157.12570180191724,
          -46.71606980177805
        ]
      }
    }
  ]
}